{"type":"Feature","properties":{"MUN":"ASBURY PARK CITY","COUNTY":"MONMOUTH","MUN_LABEL":"Asbury Park City","MUN_TYPE":"City","NAME":"Asbury Park","GNIS_NAME":"City of Asbury Park"},"geometry":{"type":"Polygon","coordinates":[[[-73.9960868,40.2303985],[-73.9960251,40.2303957],[-73.9959796,40.2304042],[-73.995908,40.2304238],[-73.9959075,40.2304241],[-73.9959069,40.2304195],[-73.9958828,40.230397],[-73.9958416,40.230382],[-73.9957907,40.2303817],[-73.995742,40.2303983],[-73.9956883,40.2304278],[-73.9955981,40.2304721],[-73.9954959,40.230507],[-73.9954255,40.2305086],[-73.9953163,40.2304913],[-73.9951539,40.2304478],[-73.9951128,40.2304253],[-73.9950937,40.2303843],[-73.9950939,40.2303489],[-73.9951063,40.2303192],[-73.9951209,40.2303174],[-73.9951743,40.2303139],[-73.9954168,40.2303634],[-73.9954435,40.2303635],[-73.9954777,40.2303376],[-73.9954999,40.2302911],[-73.9954953,40.2302576],[-73.9950807,40.2301665],[-73.9950759,40.230159],[-73.995069,40.2301161],[-73.9950911,40.2300753],[-73.9951302,40.2300438],[-73.9952228,40.229994],[-73.9953301,40.2299386],[-73.9953814,40.2298979],[-73.99545,40.2298126],[-73.9956109,40.2295676],[-73.9956828,40.2293669],[-73.9956957,40.2292627],[-73.9957208,40.229153],[-73.9958466,40.2287329],[-73.9959055,40.2284782],[-73.9959134,40.2284],[-73.9959095,40.2282772],[-73.9958788,40.2281523],[-73.9958238,40.2280404],[-73.9957676,40.227921],[-73.9957557,40.2278838],[-73.9957657,40.2278522],[-73.9957951,40.2278225],[-73.9958731,40.2277745],[-73.9960123,40.2276671],[-73.9960468,40.2276077],[-73.9960874,40.2275353],[-73.9961614,40.2273755],[-73.9962964,40.2271881],[-73.9964762,40.2268353],[-73.9965597,40.2265434],[-73.99663,40.2262366],[-73.9966562,40.2259799],[-73.9966474,40.225857],[-73.9966289,40.2257341],[-73.9965667,40.2256073],[-73.9965235,40.2255326],[-73.9965191,40.2254693],[-73.9965438,40.2254099],[-73.9965926,40.225384],[-73.9966801,40.2253695],[-73.9967678,40.2253289],[-73.9969135,40.2251732],[-73.9969748,40.2250935],[-73.9970118,40.2250043],[-73.9970443,40.2248872],[-73.9970984,40.2247906],[-73.9972013,40.2246757],[-73.9972555,40.2245698],[-73.9973099,40.2244323],[-73.9973129,40.2243541],[-73.9973036,40.2242983],[-73.9972844,40.2242665],[-73.9972554,40.2242459],[-73.9971963,40.2241917],[-73.9971456,40.2241505],[-73.9971314,40.2241133],[-73.9971295,40.2240831],[-73.9971292,40.2240779],[-73.9971392,40.2240388],[-73.9973294,40.223606],[-73.9974002,40.2234357],[-73.9974839,40.2232344],[-73.9978459,40.2223742],[-73.9978514,40.2222886],[-73.997852,40.2222086],[-73.9978081,40.22208],[-73.9977722,40.2220035],[-73.9977193,40.2219363],[-73.9977099,40.2218916],[-73.9977322,40.221834],[-73.9977884,40.2217802],[-73.9979228,40.2216598],[-73.9979793,40.2215763],[-73.9980336,40.2214611],[-73.9984305,40.2208058],[-73.99859,40.2204175],[-73.9986921,40.2200736],[-73.9987884,40.2196944],[-73.9989169,40.2193915],[-73.9989273,40.2192966],[-73.9989197,40.2191663],[-73.9989254,40.2190584],[-73.998911,40.2190397],[-73.9988892,40.2190322],[-73.9988042,40.2190281],[-73.9986999,40.2190183],[-73.9986127,40.21899],[-73.9985668,40.2189545],[-73.9985334,40.218878],[-73.9985171,40.2187867],[-73.9985545,40.2186417],[-73.9985964,40.21856],[-73.9986294,40.218536],[-73.9987049,40.2184991],[-73.9988046,40.218479],[-73.9988922,40.2184552],[-73.9989483,40.2184238],[-73.9989997,40.2183682],[-73.9990441,40.2182642],[-73.9990596,40.2181451],[-73.9991066,40.218028],[-73.9992277,40.2177401],[-73.9994024,40.2172532],[-73.9995471,40.2168927],[-73.9995583,40.2168521],[-73.9995646,40.2168295],[-73.9995602,40.2167643],[-73.9995386,40.2167252],[-73.9995049,40.2166878],[-73.9994908,40.2166282],[-73.9994913,40.2165612],[-73.9994869,40.2165358],[-74.0002281,40.2167352],[-74.0004098,40.216784],[-74.0004447,40.2167934],[-74.0004965,40.2168063],[-74.000717,40.2168608],[-74.0009038,40.2169028],[-74.0009845,40.2169209],[-74.0010698,40.21694],[-74.0010795,40.2169422],[-74.0010988,40.216946],[-74.0011985,40.2169653],[-74.0012732,40.2169739],[-74.0015548,40.2169827],[-74.001698,40.2169816],[-74.001841,40.2169792],[-74.001984,40.2169753],[-74.002127,40.21697],[-74.0022702,40.2169633],[-74.0024132,40.2169553],[-74.0025562,40.2169458],[-74.0026989,40.216935],[-74.0028412,40.2169228],[-74.0029832,40.2169092],[-74.0031249,40.2168942],[-74.0032666,40.2168779],[-74.0034081,40.2168601],[-74.0035493,40.216841],[-74.0036903,40.2168205],[-74.0038308,40.2167986],[-74.0039708,40.2167754],[-74.0041102,40.2167509],[-74.0042044,40.2167334],[-74.0043008,40.2167148],[-74.0043997,40.2166948],[-74.0045016,40.2166735],[-74.0046067,40.2166508],[-74.0047161,40.2166264],[-74.0048309,40.2166002],[-74.0049528,40.2165717],[-74.005036,40.2165517],[-74.0051206,40.2165307],[-74.0052067,40.2165088],[-74.0052945,40.2164858],[-74.0053842,40.2164617],[-74.0054762,40.2164363],[-74.0055708,40.2164097],[-74.0056687,40.2163817],[-74.0058567,40.2163263],[-74.0060654,40.2162632],[-74.006267,40.2162011],[-74.0067437,40.2160529],[-74.0069806,40.2159792],[-74.0072113,40.2159063],[-74.0074363,40.2158341],[-74.0076561,40.2157625],[-74.0078712,40.2156912],[-74.008082,40.2156202],[-74.0082886,40.2155494],[-74.0084914,40.2154787],[-74.0085584,40.2154547],[-74.0086281,40.2154292],[-74.0087011,40.2154019],[-74.0087787,40.2153723],[-74.0089269,40.2153144],[-74.009201,40.2152056],[-74.0093103,40.2151625],[-74.009423,40.2151189],[-74.0095248,40.2150804],[-74.0096401,40.2150383],[-74.0097487,40.2150004],[-74.0098012,40.2149827],[-74.0098528,40.2149658],[-74.0099034,40.2149497],[-74.0099533,40.2149343],[-74.0101217,40.214883],[-74.010219,40.2148544],[-74.0102664,40.2148412],[-74.0103111,40.2148293],[-74.0103538,40.2148185],[-74.010395,40.2148087],[-74.0104597,40.2147943],[-74.0105248,40.2147808],[-74.0105902,40.2147681],[-74.010656,40.2147564],[-74.0107221,40.2147456],[-74.0107886,40.2147356],[-74.0108554,40.2147266],[-74.0109226,40.2147185],[-74.0110119,40.2147068],[-74.0111015,40.2146967],[-74.0111915,40.2146881],[-74.0112816,40.2146811],[-74.0113719,40.2146757],[-74.0114624,40.2146718],[-74.011553,40.2146695],[-74.0116436,40.2146688],[-74.0117342,40.2146697],[-74.0118247,40.2146721],[-74.0119152,40.2146762],[-74.0120055,40.2146818],[-74.0120956,40.2146889],[-74.0121855,40.2146976],[-74.0122751,40.2147079],[-74.0123644,40.2147198],[-74.0124533,40.2147332],[-74.0125418,40.2147481],[-74.0126298,40.2147646],[-74.0129238,40.214737],[-74.0131635,40.21466],[-74.0138886,40.2143271],[-74.018757,40.2133053],[-74.0188981,40.2132756],[-74.0249551,40.2131608],[-74.024965,40.2132553],[-74.0255886,40.2191851],[-74.025545,40.2234564],[-74.025545,40.2234621],[-74.0257434,40.2236189],[-74.0257687,40.2236389],[-74.0258885,40.2237336],[-74.0259896,40.2238136],[-74.026048,40.2238597],[-74.0261118,40.2239102],[-74.0261177,40.2239148],[-74.0261963,40.223977],[-74.0265071,40.2242227],[-74.0265333,40.2242434],[-74.0268931,40.2245278],[-74.0270267,40.2246334],[-74.0270469,40.2246494],[-74.0271839,40.2247577],[-74.027228,40.2247925],[-74.027315,40.2248613],[-74.0272891,40.2248796],[-74.0272882,40.2248802],[-74.027229,40.2249219],[-74.0271525,40.2249726],[-74.027076,40.2250282],[-74.0270282,40.2250693],[-74.0269706,40.2251347],[-74.0269451,40.2251638],[-74.026849,40.2253044],[-74.026724,40.2254911],[-74.0266564,40.2256293],[-74.0266048,40.2257628],[-74.0265794,40.2258368],[-74.0265542,40.2259814],[-74.0265436,40.2261093],[-74.0264444,40.2261163],[-74.0263862,40.2261291],[-74.0263038,40.226138],[-74.0262166,40.226158],[-74.0259779,40.2262215],[-74.0255476,40.2263402],[-74.0250856,40.2264748],[-74.0246028,40.2266093],[-74.0240362,40.2267435],[-74.0237213,40.2268225],[-74.0235532,40.2268941],[-74.0233426,40.2270378],[-74.0231847,40.2271576],[-74.0230585,40.2272293],[-74.0228695,40.2272848],[-74.022607,40.227372],[-74.022334,40.2274592],[-74.0221762,40.2275389],[-74.0219868,40.2276585],[-74.0218076,40.2278184],[-74.0216493,40.2279863],[-74.0215123,40.2280982],[-74.0212914,40.2282258],[-74.0211127,40.2283054],[-74.0208502,40.2283846],[-74.020441,40.2284712],[-74.0201368,40.2285342],[-74.01978,40.228613],[-74.0193497,40.2287317],[-74.019087,40.228835],[-74.0188451,40.2289705],[-74.0186031,40.229122],[-74.0183612,40.2292495],[-74.0182246,40.2293051],[-74.0179519,40.2293522],[-74.017679,40.2294233],[-74.0174165,40.2294945],[-74.0171649,40.2295175],[-74.0166827,40.2295637],[-74.0160748,40.2295933],[-74.0156764,40.2296318],[-74.0152358,40.2297102],[-74.0149628,40.2298054],[-74.0146996,40.229981],[-74.0144844,40.2301594],[-74.0142315,40.230329],[-74.0138533,40.2304313],[-74.0137333,40.2304559],[-74.0132955,40.2305255],[-74.0128433,40.230606],[-74.0125203,40.2306706],[-74.0121043,40.2306963],[-74.01171,40.2307056],[-74.0113158,40.230693],[-74.0110005,40.2306697],[-74.0107929,40.2306248],[-74.0106216,40.2305362],[-74.0104649,40.2303927],[-74.010337,40.2302328],[-74.0101595,40.2299903],[-74.0100601,40.2298525],[-74.009889,40.2297309],[-74.0097604,40.2296589],[-74.0096459,40.2296365],[-74.0095527,40.2296361],[-74.0094451,40.2296521],[-74.0092152,40.2297225],[-74.0090139,40.2297986],[-74.0087481,40.2298799],[-74.0084249,40.2299719],[-74.008159,40.2300477],[-74.0077783,40.2301615],[-74.0075124,40.2302538],[-74.0069897,40.2304913],[-74.0061674,40.2308689],[-74.0052398,40.2312579],[-74.0052142,40.2312522],[-74.0046967,40.2312175],[-74.0037105,40.2311629],[-74.00279,40.2311253],[-74.0019577,40.2310041],[-74.0011477,40.2308494],[-74.0004907,40.2307457],[-74.0000015,40.2307142],[-73.9977353,40.2306569],[-73.9960868,40.2303985]]]}}
